{"type": "FeatureCollection", "features": [ {"type": "Feature", "properties": {"norad_id": 43010, "name": "FENGYUN 3D", "group": "weather", "lat": -35.74569010126406, "lon": 132.05725589523354, "alt_km": 832.102748439771, "timestamp": "2025-12-18T04:58:34.224483+00:00", "meta": {"OBJECT_NAME": "FENGYUN 3D", "OBJECT_ID": "2017-072A", "EPOCH": "2025-12-17T22:53:12.432768", "MEAN_MOTION": 14.19686682, "ECCENTRICITY": 0.00011919, "INCLINATION": 98.9889, "RA_OF_ASC_NODE": 318.3418, "ARG_OF_PERICENTER": 166.2596, "MEAN_ANOMALY": 193.8613, "EPHEMERIS_TYPE": 0, "CLASSIFICATION_TYPE": "U", "NORAD_CAT_ID": 43010, "ELEMENT_SET_NO": 999, "REV_AT_EPOCH": 41927, "BSTAR": 0.00016305888, "MEAN_MOTION_DOT": 2.99e-06, "MEAN_MOTION_DDOT": 0}, "tle": {"line1": "1 43010U 17072A   25351.95361612  .00000299  00000+0  16306-3 0  9992", "line2": "2 43010  98.9889 318.3418 0001191 166.2596 193.8613 14.19686682419271"}}, "geometry": {"type": "Point", "coordinates": [132.05725589523354, -35.74569010126406]}}, {"type": "Feature", "properties": {"norad_id": 43013, "name": "NOAA 20 (JPSS-1)", "group": "weather", "lat": 5.060343326403906, "lon": -72.33803280816015, "alt_km": 828.7428274050644, "timestamp": "2025-12-18T04:58:34.224494+00:00", "meta": {"OBJECT_NAME": "NOAA 20 (JPSS-1)", "OBJECT_ID": "2017-073A", "EPOCH": "2025-12-17T20:29:37.849056", "MEAN_MOTION": 14.1952711, "ECCENTRICITY": 0.000214, "INCLINATION": 98.7604, "RA_OF_ASC_NODE": 288.0948, "ARG_OF_PERICENTER": 79.7653, "MEAN_ANOMALY": 280.3764, "EPHEMERIS_TYPE": 0, "CLASSIFICATION_TYPE": "U", "NORAD_CAT_ID": 43013, "ELEMENT_SET_NO": 999, "REV_AT_EPOCH": 41874, "BSTAR": 5.5150707e-05, "MEAN_MOTION_DOT": 7.2e-07, "MEAN_MOTION_DDOT": 0}, "tle": {"line1": "1 43013U 17073A   25351.85391029  .00000072  00000+0  55151-4 0  9991", "line2": "2 43013  98.7604 288.0948 0002140  79.7653 280.3764 14.19527110418745"}}, "geometry": {"type": "Point", "coordinates": [-72.33803280816015, 5.060343326403906]}}, {"type": "Feature", "properties": {"norad_id": 43226, "name": "GOES 17", "group": "weather", "lat": -0.10991532192858945, "lon": 72.22214616778592, "alt_km": 35797.89546553792, "timestamp": "2025-12-18T04:58:34.224507+00:00", "meta": {"OBJECT_NAME": "GOES 17", "OBJECT_ID": "2018-022A", "EPOCH": "2025-12-17T14:36:45.154080", "MEAN_MOTION": 1.00271176, "ECCENTRICITY": 0.00030884, "INCLINATION": 0.4705, "RA_OF_ASC_NODE": 89.1479, "ARG_OF_PERICENTER": 190.7704, "MEAN_ANOMALY": 296.2551, "EPHEMERIS_TYPE": 0, "CLASSIFICATION_TYPE": "U", "NORAD_CAT_ID": 43226, "ELEMENT_SET_NO": 999, "REV_AT_EPOCH": 2860, "BSTAR": 0, "MEAN_MOTION_DOT": -1.58e-06, "MEAN_MOTION_DDOT": 0}, "tle": {"line1": "1 43226U 18022A   25351.60885595 -.00000158  00000+0  00000+0 0  9995", "line2": "2 43226   0.4705  89.1479 0003088 190.7704 296.2551  1.00271176 28601"}}, "geometry": {"type": "Point", "coordinates": [72.22214616778592, -0.10991532192858945]}}, {"type": "Feature", "properties": {"norad_id": 43491, "name": "FENGYUN 2H", "group": "weather", "lat": 0.8604296703723467, "lon": -118.92168908732032, "alt_km": 35775.84924659229, "timestamp": "2025-12-18T04:58:34.224520+00:00", "meta": {"OBJECT_NAME": "FENGYUN 2H", "OBJECT_ID": "2018-050A", "EPOCH": "2025-12-17T20:24:44.057088", "MEAN_MOTION": 1.00271379, "ECCENTRICITY": 0.00024352, "INCLINATION": 2.5638, "RA_OF_ASC_NODE": 81.2757, "ARG_OF_PERICENTER": 166.1367, "MEAN_ANOMALY": 224.8475, "EPHEMERIS_TYPE": 0, "CLASSIFICATION_TYPE": "U", "NORAD_CAT_ID": 43491, "ELEMENT_SET_NO": 999, "REV_AT_EPOCH": 2762, "BSTAR": 0, "MEAN_MOTION_DOT": -1.07e-06, "MEAN_MOTION_DDOT": 0}, "tle": {"line1": "1 43491U 18050A   25351.85050992 -.00000107  00000+0  00000+0 0  9996", "line2": "2 43491   2.5638  81.2757 0002435 166.1367 224.8475  1.00271379 27620"}}, "geometry": {"type": "Point", "coordinates": [-118.92168908732032, 0.8604296703723467]}}, {"type": "Feature", "properties": {"norad_id": 43689, "name": "METOP-C", "group": "weather", "lat": -4.81396389856395, "lon": -130.84508764947546, "alt_km": 824.5100891744614, "timestamp": "2025-12-18T04:58:34.224531+00:00", "meta": {"OBJECT_NAME": "METOP-C", "OBJECT_ID": "2018-087A", "EPOCH": "2025-12-17T21:21:09.013824", "MEAN_MOTION": 14.21486342, "ECCENTRICITY": 9.998e-05, "INCLINATION": 98.6924, "RA_OF_ASC_NODE": 49.5804, "ARG_OF_PERICENTER": 29.7701, "MEAN_ANOMALY": 330.3533, "EPHEMERIS_TYPE": 0, "CLASSIFICATION_TYPE": "U", "NORAD_CAT_ID": 43689, "ELEMENT_SET_NO": 999, "REV_AT_EPOCH": 36907, "BSTAR": 7.6065109e-05, "MEAN_MOTION_DOT": 1.23e-06, "MEAN_MOTION_DDOT": 0}, "tle": {"line1": "1 43689U 18087A   25351.88968766  .00000123  00000+0  76065-4 0  9991", "line2": "2 43689  98.6924  49.5804 0000999  29.7701 330.3533 14.21486342369073"}}, "geometry": {"type": "Point", "coordinates": [-130.84508764947546, -4.81396389856395]}}, {"type": "Feature", "properties": {"norad_id": 43823, "name": "GEO-KOMPSAT-2A", "group": "weather", "lat": -0.018715497969086527, "lon": -70.0219335243654, "alt_km": 35788.44047969955, "timestamp": "2025-12-18T04:58:34.224542+00:00", "meta": {"OBJECT_NAME": "GEO-KOMPSAT-2A", "OBJECT_ID": "2018-100A", "EPOCH": "2025-12-16T07:07:06.206304", "MEAN_MOTION": 1.00271835, "ECCENTRICITY": 4.993e-05, "INCLINATION": 0.0508, "RA_OF_ASC_NODE": 132.3973, "ARG_OF_PERICENTER": 330.4458, "MEAN_ANOMALY": 217.3998, "EPHEMERIS_TYPE": 0, "CLASSIFICATION_TYPE": "U", "NORAD_CAT_ID": 43823, "ELEMENT_SET_NO": 999, "REV_AT_EPOCH": 2579, "BSTAR": 0, "MEAN_MOTION_DOT": -3.2e-06, "MEAN_MOTION_DDOT": 0}, "tle": {"line1": "1 43823U 18100A   25350.29659961 -.00000320  00000+0  00000+0 0  9996", "line2": "2 43823   0.0508 132.3973 0000499 330.4458 217.3998  1.00271835 25791"}}, "geometry": {"type": "Point", "coordinates": [-70.0219335243654, -0.018715497969086527]}}, {"type": "Feature", "properties": {"norad_id": 44387, "name": "METEOR-M2 2", "group": "weather", "lat": -45.27290293593804, "lon": -18.898051945323893, "alt_km": 818.6112608744515, "timestamp": "2025-12-18T04:58:34.224553+00:00", "meta": {"OBJECT_NAME": "METEOR-M2 2", "OBJECT_ID": "2019-038A", "EPOCH": "2025-12-17T22:26:51.891648", "MEAN_MOTION": 14.24294091, "ECCENTRICITY": 0.00014724, "INCLINATION": 98.8968, "RA_OF_ASC_NODE": 331.7278, "ARG_OF_PERICENTER": 137.8065, "MEAN_ANOMALY": 222.3227, "EPHEMERIS_TYPE": 0, "CLASSIFICATION_TYPE": "U", "NORAD_CAT_ID": 44387, "ELEMENT_SET_NO": 999, "REV_AT_EPOCH": 33549, "BSTAR": 0.00011794441, "MEAN_MOTION_DOT": 2.27e-06, "MEAN_MOTION_DDOT": 0}, "tle": {"line1": "1 44387U 19038A   25351.93532282  .00000227  00000+0  11794-3 0  9992", "line2": "2 44387  98.8968 331.7278 0001472 137.8065 222.3227 14.24294091335491"}}, "geometry": {"type": "Point", "coordinates": [-18.898051945323893, -45.27290293593804]}}, {"type": "Feature", "properties": {"norad_id": 47719, "name": "ARKTIKA-M 1", "group": "weather", "lat": 59.56445209267226, "lon": 142.61762782103625, "alt_km": 36016.321355657514, "timestamp": "2025-12-18T04:58:34.224566+00:00", "meta": {"OBJECT_NAME": "ARKTIKA-M 1", "OBJECT_ID": "2021-016A", "EPOCH": "2025-12-16T01:33:46.454400", "MEAN_MOTION": 2.00630649, "ECCENTRICITY": 0.72056757, "INCLINATION": 63.179, "RA_OF_ASC_NODE": 83.5626, "ARG_OF_PERICENTER": 269.1378, "MEAN_ANOMALY": 15.5886, "EPHEMERIS_TYPE": 0, "CLASSIFICATION_TYPE": "U", "NORAD_CAT_ID": 47719, "ELEMENT_SET_NO": 999, "REV_AT_EPOCH": 3511, "BSTAR": 0, "MEAN_MOTION_DOT": -1.08e-06, "MEAN_MOTION_DDOT": 0}, "tle": {"line1": "1 47719U 21016A   25350.06512100 -.00000108  00000+0  00000+0 0  9996", "line2": "2 47719  63.1790  83.5626 7205675 269.1378  15.5886  2.00630649 35117"}}, "geometry": {"type": "Point", "coordinates": [142.61762782103625, 59.56445209267226]}}, {"type": "Feature", "properties": {"norad_id": 49008, "name": "FENGYUN 3E", "group": "weather", "lat": -6.614518529328545, "lon": 171.64083039931063, "alt_km": 829.1481098575341, "timestamp": "2025-12-18T04:58:34.224579+00:00", "meta": {"OBJECT_NAME": "FENGYUN 3E", "OBJECT_ID": "2021-062A", "EPOCH": "2025-12-17T23:01:35.283360", "MEAN_MOTION": 14.19880324, "ECCENTRICITY": 6.402e-05, "INCLINATION": 98.7474, "RA_OF_ASC_NODE": 352.4189, "ARG_OF_PERICENTER": 229.0383, "MEAN_ANOMALY": 131.0738, "EPHEMERIS_TYPE": 0, "CLASSIFICATION_TYPE": "U", "NORAD_CAT_ID": 49008, "ELEMENT_SET_NO": 999, "REV_AT_EPOCH": 23086, "BSTAR": -4.8747163e-05, "MEAN_MOTION_DOT": -1.47e-06, "MEAN_MOTION_DDOT": 0}, "tle": {"line1": "1 49008U 21062A   25351.95943615 -.00000147  00000+0 -48747-4 0  9997", "line2": "2 49008  98.7474 352.4189 0000640 229.0383 131.0738 14.19880324230863"}}, "geometry": {"type": "Point", "coordinates": [171.64083039931063, -6.614518529328545]}}, {"type": "Feature", "properties": {"norad_id": 51850, "name": "GOES 18", "group": "weather", "lat": -0.003975053149436301, "lon": 24.710163362356962, "alt_km": 35784.66026196582, "timestamp": "2025-12-18T04:58:34.224590+00:00", "meta": {"OBJECT_NAME": "GOES 18", "OBJECT_ID": "2022-021A", "EPOCH": "2025-12-17T17:48:41.773824", "MEAN_MOTION": 1.00272269, "ECCENTRICITY": 4.609e-05, "INCLINATION": 0.0199, "RA_OF_ASC_NODE": 176.1469, "ARG_OF_PERICENTER": 158.7139, "MEAN_ANOMALY": 241.9291, "EPHEMERIS_TYPE": 0, "CLASSIFICATION_TYPE": "U", "NORAD_CAT_ID": 51850, "ELEMENT_SET_NO": 999, "REV_AT_EPOCH": 477, "BSTAR": 0, "MEAN_MOTION_DOT": 1.22e-06, "MEAN_MOTION_DDOT": 0}, "tle": {"line1": "1 51850U 22021A   25351.74215016  .00000122  00000+0  00000+0 0  9991", "line2": "2 51850   0.0199 176.1469 0000460 158.7139 241.9291  1.00272269  4773"}}, "geometry": {"type": "Point", "coordinates": [24.710163362356962, -0.003975053149436301]}}]}